{
"type": "FeatureCollection",
"name": "oakland_boundary",
"crs": { "type": "name", "properties": { "name": "urn:ogc:def:crs:OGC:1.3:CRS84" } },
"features": [
{ "type": "Feature", "properties": { "name": "Oakland" }, "geometry": { "type": "MultiPolygon", "coordinates": [ [ [ [ -122.259884276411995, 37.790038124330103 ], [ -122.264690339981001, 37.788437195803802 ], [ -122.263589324443004, 37.789338164683798 ], [ -122.264891341155007, 37.789138177626697 ], [ -122.264690337101001, 37.789938154425002 ], [ -122.265591348808996, 37.789738165070197 ], [ -122.264490332459005, 37.791039122940397 ], [ -122.263584320369006, 37.7913541091336 ], [ -122.264767334796005, 37.791649107691903 ], [ -122.268873389381994, 37.790149172391203 ], [ -122.268573384769994, 37.7906491568544 ], [ -122.271276418452999, 37.790949163871197 ], [ -122.273679446833995, 37.792450135778999 ], [ -122.274280453193001, 37.793450111360897 ], [ -122.274781460116998, 37.793050125294499 ], [ -122.282268553047004, 37.796583068422201 ], [ -122.283148564954004, 37.795954090910598 ], [ -122.288937639775995, 37.796688102336397 ], [ -122.288847638331006, 37.797447080467997 ], [ -122.289538647314998, 37.797589080273099 ], [ -122.290677662763997, 37.795289151405498 ], [ -122.291457672774001, 37.795669145018799 ], [ -122.291188669052005, 37.796806111446401 ], [ -122.291727676060006, 37.796877112419303 ], [ -122.292897691491007, 37.794981172451998 ], [ -122.293347697260003, 37.795551158845598 ], [ -122.293918704655994, 37.795384166739701 ], [ -122.293858703902998, 37.794768183826001 ], [ -122.296197734002007, 37.794266211085798 ], [ -122.305811857706999, 37.794349262410698 ], [ -122.327343143652001, 37.798551260362203 ], [ -122.332049210574993, 37.8006522247831 ], [ -122.331648206455995, 37.801153207976398 ], [ -122.327343149814993, 37.801453175926497 ], [ -122.325740135125002, 37.804754071338699 ], [ -122.325239132918995, 37.807056001808597 ], [ -122.328444178536003, 37.807854995440401 ], [ -122.332723231325005, 37.805429088825697 ], [ -122.340060323976004, 37.803054197645501 ], [ -122.341562349618997, 37.804854152716103 ], [ -122.332950247899007, 37.810856931358103 ], [ -122.322536102274, 37.810555886130501 ], [ -122.320133075149997, 37.814357763710902 ], [ -122.313421986395994, 37.819460582775001 ], [ -122.308715918038004, 37.8192605651113 ], [ -122.308515916963003, 37.821261506814601 ], [ -122.312520976730994, 37.822362494909903 ], [ -122.315726023208995, 37.821961522167797 ], [ -122.319231070067005, 37.819160620318897 ], [ -122.319231074388995, 37.821861542265999 ], [ -122.329045215175, 37.820561628351697 ], [ -122.329245221232, 37.821961588541598 ], [ -122.320733100626995, 37.824363477250003 ], [ -122.317328055692997, 37.828064353953003 ], [ -122.314325012449999, 37.829565296460302 ], [ -122.309216933119004, 37.827464332530297 ], [ -122.299802792194996, 37.828365261964301 ], [ -122.299802793027993, 37.830766193718397 ], [ -122.295397725927003, 37.829565207045498 ], [ -122.297800763002002, 37.832767127540599 ], [ -122.294077705898005, 37.831624142572203 ], [ -122.293494697029004, 37.831066155621897 ], [ -122.278609473892004, 37.827500185363697 ], [ -122.279110479728999, 37.829201140265099 ], [ -122.276150425821996, 37.836974909772401 ], [ -122.280000485507998, 37.837444914132398 ], [ -122.282215520513006, 37.837003936516602 ], [ -122.282378522605995, 37.8375859209617 ], [ -122.285018564290993, 37.837003949249898 ], [ -122.289425628892005, 37.850110600034697 ], [ -122.284218542637007, 37.850911555582201 ], [ -122.283717535468995, 37.849310598354798 ], [ -122.282815520515001, 37.849510588926101 ], [ -122.282215512394004, 37.847309648000397 ], [ -122.276907425057999, 37.848109602929398 ], [ -122.276507420491001, 37.846408648603301 ], [ -122.269598306787998, 37.847409591087398 ], [ -122.270098312578, 37.848909551682802 ], [ -122.268896292551005, 37.8491105410098 ], [ -122.269497297740998, 37.852011463248999 ], [ -122.268496280803006, 37.8522114535361 ], [ -122.253976035598996, 37.853812349244201 ], [ -122.253675037148, 37.851311416274598 ], [ -122.236378514186995, 37.8525923096296 ], [ -122.234175442557003, 37.852692297787002 ], [ -122.233646426294001, 37.8523113059614 ], [ -122.234146441573003, 37.852711297150002 ], [ -122.234848452822007, 37.857614166664 ], [ -122.241634672095003, 37.857500197804903 ], [ -122.243359723853999, 37.859015163691701 ], [ -122.243860740521001, 37.858815171204903 ], [ -122.245963739000999, 37.8849264689553 ], [ -122.241957619892005, 37.8821255288413 ], [ -122.238653512092, 37.883525477237399 ], [ -122.230942273287994, 37.881524500163103 ], [ -122.223833054726001, 37.878523552683298 ], [ -122.221327981258995, 37.875521624027897 ], [ -122.217322860704996, 37.871919705492999 ], [ -122.216220830883998, 37.869018779796498 ], [ -122.219124926730998, 37.867417835247501 ], [ -122.221429004794004, 37.865216904554302 ], [ -122.212214723657993, 37.856914092166498 ], [ -122.208738619070004, 37.852191206073798 ], [ -122.203731457923993, 37.851391207057603 ], [ -122.200227349779993, 37.847389301171098 ], [ -122.195220191261996, 37.843787378131601 ], [ -122.195721209259005, 37.842486415517897 ], [ -122.193863150412, 37.840918450334399 ], [ -122.191715081168994, 37.839985466705997 ], [ -122.188809988347003, 37.837784514309803 ], [ -122.185204870606, 37.837184515556402 ], [ -122.184103837353007, 37.834082595077597 ], [ -122.187007937435993, 37.829680726582403 ], [ -122.187007939671005, 37.827479786273997 ], [ -122.185805901644997, 37.825678830081998 ], [ -122.186606930215007, 37.823677887703703 ], [ -122.186255919955002, 37.822272924334001 ], [ -122.194427205836007, 37.8106722733908 ], [ -122.196622279146993, 37.810972274504202 ], [ -122.197423306294993, 37.810772283308701 ], [ -122.198524344060004, 37.810172304235202 ], [ -122.201428441318001, 37.810372311052497 ], [ -122.207437649455997, 37.806370445073398 ], [ -122.207938666977, 37.8059694580799 ], [ -122.209139709414998, 37.804769495745802 ], [ -122.209740730682, 37.804168514609998 ], [ -122.210341752133999, 37.803468536164502 ], [ -122.211042774969002, 37.803968525547397 ], [ -122.212243816546007, 37.803368546925 ], [ -122.215943940208007, 37.804091542928099 ], [ -122.212241816521001, 37.803343547595702 ], [ -122.211040774943001, 37.803943526218099 ], [ -122.210339752107998, 37.803443536835097 ], [ -122.207435649429996, 37.806344445771003 ], [ -122.201427441318998, 37.8103473117269 ], [ -122.198523344061002, 37.810146304936602 ], [ -122.196657280371994, 37.810933275710099 ], [ -122.192251133868993, 37.809732289718198 ], [ -122.189347036507996, 37.809532282894203 ], [ -122.185340901881005, 37.809532265995799 ], [ -122.183537841196994, 37.8096322556788 ], [ -122.180733748066004, 37.808332279092802 ], [ -122.179632712246004, 37.806831315133699 ], [ -122.178430674172006, 37.803729394136496 ], [ -122.177429640819994, 37.803129406165297 ], [ -122.176527609838999, 37.803829383378996 ], [ -122.175225566221997, 37.803329391422999 ], [ -122.175626580395999, 37.802429417508698 ], [ -122.168616344997005, 37.799327471873198 ], [ -122.168516340552998, 37.801428414539899 ], [ -122.169317367705005, 37.801328420639202 ], [ -122.170318400910006, 37.802529392341199 ], [ -122.170519406365997, 37.8049303281473 ], [ -122.166953285670004, 37.805801289485103 ], [ -122.164711210318004, 37.805230295475297 ], [ -122.164410200437999, 37.804530313158999 ], [ -122.166012254584004, 37.8043303253476 ], [ -122.165512237835003, 37.804029331385301 ], [ -122.165523238758993, 37.802709367179403 ], [ -122.164310198642994, 37.800427423842898 ], [ -122.164511206073001, 37.798827468021599 ], [ -122.163009155080005, 37.799027456241397 ], [ -122.163109158222994, 37.799727437711098 ], [ -122.162608141115001, 37.800127424758301 ], [ -122.160005053036997, 37.799827421855603 ], [ -122.158503002513001, 37.798226458830797 ], [ -122.159203026426994, 37.797526480747003 ], [ -122.158503002781003, 37.797026491313503 ], [ -122.157799978829004, 37.797426477505098 ], [ -122.156798945011005, 37.796525497647103 ], [ -122.151391761349004, 37.796425477417898 ], [ -122.151090751194005, 37.792423584417499 ], [ -122.146183583942005, 37.792323566271897 ], [ -122.143780501609001, 37.790022618285498 ], [ -122.142779467596995, 37.790823592368298 ], [ -122.141577426354999, 37.789922611619097 ], [ -122.143480490800997, 37.787121695457998 ], [ -122.139914367634006, 37.783348782276498 ], [ -122.155004870451066, 37.772312157530671 ], [ -122.154058854368003, 37.772238143280298 ], [ -122.154967885846006, 37.772335144550702 ], [ -122.139877366370001, 37.783371781496903 ], [ -122.134931194298005, 37.778139901802803 ], [ -122.134230170262995, 37.778439890698699 ], [ -122.133529145723003, 37.7776399093216 ], [ -122.134130166272001, 37.777239922701298 ], [ -122.126049880948003, 37.767614148150898 ], [ -122.120443677623001, 37.7575513957852 ], [ -122.121042698503004, 37.757410402175204 ], [ -122.128885138025169, 37.753688458778491 ], [ -122.120480678899995, 37.757528396565803 ], [ -122.115771505349997, 37.749584594132401 ], [ -122.115672498457997, 37.748576631018302 ], [ -122.113668431562999, 37.749684581356902 ], [ -122.111965362760003, 37.746883678144499 ], [ -122.114671423844001, 37.736674067874297 ], [ -122.115572454162006, 37.736474078655 ], [ -122.116574482429002, 37.734673148997103 ], [ -122.117675521208, 37.734973141948203 ], [ -122.121679647191996, 37.731975266846099 ], [ -122.1228816924, 37.733075230731899 ], [ -122.122380666507993, 37.7307743134348 ], [ -122.123281691339997, 37.729273371643103 ], [ -122.122881674696998, 37.7284733996349 ], [ -122.124183716817996, 37.7279734223711 ], [ -122.12698781332, 37.728373417205702 ], [ -122.131293968335996, 37.730474355443199 ], [ -122.130144938526996, 37.732614273583501 ], [ -122.130355949820995, 37.733558239997798 ], [ -122.131786997161996, 37.733199258202603 ], [ -122.133999076294998, 37.733975238052203 ], [ -122.136703156473999, 37.731374341761402 ], [ -122.138306207659994, 37.730674372618601 ], [ -122.138406213004998, 37.731074358557201 ], [ -122.137906196979003, 37.7312793494159 ], [ -122.139123252800999, 37.734211248156598 ], [ -122.140010282022004, 37.733980259690902 ], [ -122.141011328356996, 37.736381177101201 ], [ -122.144716474188996, 37.739882065778197 ], [ -122.146388544868003, 37.742262987331202 ], [ -122.147420571580994, 37.740582051347303 ], [ -122.148122594257998, 37.7402820647781 ], [ -122.160240993184999, 37.7369812278721 ], [ -122.164048113747, 37.735380298075498 ], [ -122.165334037904884, 37.737158429189464 ], [ -122.171405359119007, 37.734373360058399 ], [ -122.169902285499006, 37.731172465496002 ], [ -122.174909454475994, 37.730972489944797 ], [ -122.170303273437995, 37.727470595117403 ], [ -122.171502313931001, 37.727466599267601 ], [ -122.172297334749004, 37.726611631465303 ], [ -122.173963388100006, 37.726213650698199 ], [ -122.175710437182005, 37.724868702713401 ], [ -122.178676536181996, 37.724770715659602 ], [ -122.179127558339005, 37.725700685263902 ], [ -122.182419661230995, 37.724668731221897 ], [ -122.189829939912002, 37.728270633426703 ], [ -122.191693987305001, 37.7263887031542 ], [ -122.192242010577999, 37.7269606856986 ], [ -122.196040126808995, 37.725569744936998 ], [ -122.196441146368002, 37.726269722799699 ], [ -122.197175168949997, 37.726020733549298 ], [ -122.196140112039004, 37.723468815661803 ], [ -122.189129828706001, 37.717565993026803 ], [ -122.193034946349997, 37.716166051505802 ], [ -122.193667976322999, 37.717234017411002 ], [ -122.194813011432998, 37.716904031807502 ], [ -122.193967971223003, 37.715463077789799 ], [ -122.197042068371999, 37.714965103132698 ], [ -122.198844111933994, 37.713164168313398 ], [ -122.209759444892001, 37.7104632869234 ], [ -122.211161474362001, 37.708762346455899 ], [ -122.210459380651002, 37.701358588142902 ], [ -122.213364448491006, 37.698757679753001 ], [ -122.242205610186005, 37.7194680877788 ], [ -122.245711733964001, 37.720068079479198 ], [ -122.251714978224996, 37.7246929567644 ], [ -122.250078955988997, 37.726364896500002 ], [ -122.246211817307, 37.725669905517101 ], [ -122.236097397948001, 37.718667094916398 ], [ -122.228067219519005, 37.7269078064732 ], [ -122.226319157179006, 37.726593810775199 ], [ -122.226645208768005, 37.730413688938299 ], [ -122.22557018837, 37.7319426359334 ], [ -122.225156309716994, 37.744808219645698 ], [ -122.22667236641, 37.745160214538899 ], [ -122.226384375652003, 37.746980154770597 ], [ -122.225383340546003, 37.746980150569399 ], [ -122.225483330328004, 37.745679192917002 ], [ -122.221978212864002, 37.746179162215398 ], [ -122.214566892326999, 37.739976334230597 ], [ -122.210078651255998, 37.730993612299599 ], [ -122.208167581824, 37.730525621047498 ], [ -122.211941783105004, 37.738076386369599 ], [ -122.211649788911998, 37.739722331218097 ], [ -122.213192856212004, 37.741150290419398 ], [ -122.217772091718004, 37.748781059979102 ], [ -122.213878934793996, 37.746745109979997 ], [ -122.211694841734001, 37.745035156973401 ], [ -122.211175802099007, 37.742799228294999 ], [ -122.209459727923004, 37.741277271519699 ], [ -122.208326695530999, 37.742011242842203 ], [ -122.213935959772002, 37.749091033431597 ], [ -122.213072936854999, 37.750327991430296 ], [ -122.210752852712005, 37.751734943178398 ], [ -122.207607740566004, 37.752616905631903 ], [ -122.209656813080002, 37.752365921302498 ], [ -122.212984932629993, 37.750973973499903 ], [ -122.213097935687998, 37.751503959589797 ], [ -122.214076970012997, 37.751591961430996 ], [ -122.215025994802005, 37.756401834842201 ], [ -122.216896055196997, 37.759223766224203 ], [ -122.215200993017007, 37.7608057159363 ], [ -122.214566970709001, 37.760885711032699 ], [ -122.213064921161006, 37.759184750776498 ], [ -122.214165963423, 37.757083812603 ], [ -122.212663908161005, 37.758584765348502 ], [ -122.207410733477005, 37.752715902092199 ], [ -122.212678908645003, 37.758608764761199 ], [ -122.211377862404007, 37.759008748288302 ], [ -122.212579900687004, 37.761209693675099 ], [ -122.215685008842996, 37.761409701608599 ], [ -122.222394248883006, 37.758608806632303 ], [ -122.224397306490005, 37.764711649339802 ], [ -122.220424161593002, 37.768017542401701 ], [ -122.224424307430994, 37.764711649455798 ], [ -122.229604477842003, 37.769313546564298 ], [ -122.236214701167995, 37.771915504128501 ], [ -122.240392838193003, 37.775016437637603 ], [ -122.243897948693999, 37.779118340973298 ], [ -122.238990778406006, 37.779619306371401 ], [ -122.237916740808998, 37.779870294953 ], [ -122.243860947382998, 37.779132340434103 ], [ -122.243860943485998, 37.780633299572997 ], [ -122.243159917561002, 37.781333277524602 ], [ -122.243960942247, 37.782434250971903 ], [ -122.243259917645005, 37.782634242536403 ], [ -122.243359918495003, 37.783635215714199 ], [ -122.244260950205003, 37.783335227723803 ], [ -122.247667058231002, 37.786636152367699 ], [ -122.248669093087997, 37.786436162081898 ], [ -122.253775204497998, 37.788137141479801 ], [ -122.259083274998005, 37.786236224065398 ], [ -122.261987308746995, 37.787237213324602 ], [ -122.259283269980003, 37.789538134629197 ], [ -122.259884276411995, 37.790038124330103 ] ] ], [ [ [ -122.175491571978, 37.8079702667793 ], [ -122.178395672959994, 37.803768392931403 ], [ -122.179597711035001, 37.806870313928698 ], [ -122.180698746855995, 37.8083712778879 ], [ -122.183502839984996, 37.809671254473699 ], [ -122.192216132647999, 37.809771288512501 ], [ -122.194419205567002, 37.810672273357099 ], [ -122.186255919955002, 37.822272924334001 ], [ -122.185905909693005, 37.820875960749802 ], [ -122.181399760714996, 37.819675974366397 ], [ -122.174990550684996, 37.814474088415302 ], [ -122.174389533164998, 37.810572191619897 ], [ -122.175491571978, 37.8079702667793 ] ] ] ] } }
]
}
